SL-8 R/B                
1 11574U 79089B   26066.52600562  .00000392  00000+0  12637-3 0  9992
2 11574  74.0670  95.0496 0017151 267.9354  91.9838 14.42349243435790
SL-14 R/B               
1 11672U 80005B   26066.64712889  .00000792  00000+0  77581-4 0  9994
2 11672  82.5148 309.1739 0016019 164.8610 195.3092 14.90927772476185
SL-8 R/B                
1 12139U 81003B   26066.61651717  .00025338  00000+0  65122-3 0  9991
2 12139  82.9381 291.9415 0262431 185.8375 173.9788 15.10873585314368
SL-3 R/B                
1 12465U 81046B   26066.64300090  .00016729  00000+0  38972-3 0  9995
2 12465  81.2296 292.2023 0019709  29.3557 330.8788 15.41929062438118
SL-3 R/B                
1 12904U 81103B   26066.60185267  .00007938  00000+0  35259-3 0  9997
2 12904  81.1589 215.8810 0012511 294.0504  65.9418 15.21346785972912
SL-3 R/B                
1 13068U 82013B   26066.61079796  .00007328  00000+0  31774-3 0  9991
2 13068  81.1763 163.2065 0022509 184.3151 175.7891 15.21991703404037
SL-3 R/B                
1 13154U 82039B   26066.60268972  .00003913  00000+0  23663-3 0  9994
2 13154  81.1585 218.3678 0029782 331.2896  28.6688 15.10066792381321
SL-3 R/B                
1 13403U 82079B   26066.63254841  .00010602  00000+0  42300-3 0  9990
2 13403  81.1482 195.5055 0025010 171.5586 188.6074 15.24762249377382
SL-14 R/B               
1 13553U 82092B   26066.63425470  .00000678  00000+0  73460-4 0  9993
2 13553  82.5698 143.3219 0019110 310.8497 163.2881 14.86664261328628
SL-3 R/B                
1 13819U 83010B   26066.56082794  .00023841  00000+0  48005-3 0  9992
2 13819  81.1066   4.8568 0018171  58.0429 302.2579 15.46261559357617
SL-3 R/B                
1 14208U 83075B   26066.60565644  .00015701  00000+0  41440-3 0  9993
2 14208  97.6143  71.1036 0019962 233.9045 126.0352 15.38355826329838
COSMOS 1536             
1 14699U 84013A   26066.55290681  .00008117  00000+0  33522-3 0  9995
2 14699  82.5426 109.9744 0012618 292.0444  67.9453 15.23791013272293
SL-14 R/B               
1 14820U 84027B   26066.60568562  .00000700  00000+0  77221-4 0  9993
2 14820  82.5384 246.9678 0017530 345.0027  15.0667 14.85974122247322
SL-8 R/B                
1 15483U 85006B   26066.64026111  .00000276  00000+0  10005-3 0  9994
2 15483  74.0432 264.9199 0018536 183.1962 238.4515 14.37780815153737
SL-12 R/B(2)            
1 15772U 85042D   26066.52283894  .00000058  00000+0  47680-4 0  9993
2 15772  71.1062  92.3071 0033342 131.7156 337.4150 14.21981894114086
SL-14 R/B               
1 15945U 85069B   26066.59110062  .00000792  00000+0  86700-4 0  9998
2 15945  82.5282  26.9059 0018281 194.7886 165.2799 14.86430494172526
SL-16 R/B               
1 16182U 85097B   26066.66621285 -.00000165  00000+0 -58457-4 0  9999
2 16182  71.0032 144.8144 0009942 262.1897 209.0189 14.16599316 86949
