[{"OBJECT_NAME":"SL-8 R/B","OBJECT_ID":"1979-089B","EPOCH":"2026-03-07T12:37:26.885568","MEAN_MOTION":14.42349243,"ECCENTRICITY":0.00171512,"INCLINATION":74.067,"RA_OF_ASC_NODE":95.0496,"ARG_OF_PERICENTER":267.9354,"MEAN_ANOMALY":91.9838,"EPHEMERIS_TYPE":0,"CLASSIFICATION_TYPE":"U","NORAD_CAT_ID":11574,"ELEMENT_SET_NO":999,"REV_AT_EPOCH":43579,"BSTAR":0.00012636884,"MEAN_MOTION_DOT":3.92e-6,"MEAN_MOTION_DDOT":0},{"OBJECT_NAME":"SL-14 R/B","OBJECT_ID":"1980-005B","EPOCH":"2026-03-07T15:31:51.936096","MEAN_MOTION":14.90927772,"ECCENTRICITY":0.00160197,"INCLINATION":82.5148,"RA_OF_ASC_NODE":309.1739,"ARG_OF_PERICENTER":164.861,"MEAN_ANOMALY":195.3092,"EPHEMERIS_TYPE":0,"CLASSIFICATION_TYPE":"U","NORAD_CAT_ID":11672,"ELEMENT_SET_NO":999,"REV_AT_EPOCH":47618,"BSTAR":7.7580907e-5,"MEAN_MOTION_DOT":7.92e-6,"MEAN_MOTION_DDOT":0},{"OBJECT_NAME":"SL-8 R/B","OBJECT_ID":"1981-003B","EPOCH":"2026-03-07T14:47:47.083488","MEAN_MOTION":15.10873585,"ECCENTRICITY":0.02624314,"INCLINATION":82.9381,"RA_OF_ASC_NODE":291.9415,"ARG_OF_PERICENTER":185.8375,"MEAN_ANOMALY":173.9788,"EPHEMERIS_TYPE":0,"CLASSIFICATION_TYPE":"U","NORAD_CAT_ID":12139,"ELEMENT_SET_NO":999,"REV_AT_EPOCH":31436,"BSTAR":0.00065122353,"MEAN_MOTION_DOT":0.00025338,"MEAN_MOTION_DDOT":0},{"OBJECT_NAME":"SL-3 R/B","OBJECT_ID":"1981-046B","EPOCH":"2026-03-07T15:25:55.277760","MEAN_MOTION":15.41929062,"ECCENTRICITY":0.00197093,"INCLINATION":81.2296,"RA_OF_ASC_NODE":292.2023,"ARG_OF_PERICENTER":29.3557,"MEAN_ANOMALY":330.8788,"EPHEMERIS_TYPE":0,"CLASSIFICATION_TYPE":"U","NORAD_CAT_ID":12465,"ELEMENT_SET_NO":999,"REV_AT_EPOCH":43811,"BSTAR":0.00038972262,"MEAN_MOTION_DOT":0.00016729,"MEAN_MOTION_DDOT":0},{"OBJECT_NAME":"SL-3 R/B","OBJECT_ID":"1981-103B","EPOCH":"2026-03-07T14:26:40.070688","MEAN_MOTION":15.21346785,"ECCENTRICITY":0.00125117,"INCLINATION":81.1589,"RA_OF_ASC_NODE":215.881,"ARG_OF_PERICENTER":294.0504,"MEAN_ANOMALY":65.9418,"EPHEMERIS_TYPE":0,"CLASSIFICATION_TYPE":"U","NORAD_CAT_ID":12904,"ELEMENT_SET_NO":999,"REV_AT_EPOCH":97291,"BSTAR":0.00035258882,"MEAN_MOTION_DOT":7.938e-5,"MEAN_MOTION_DDOT":0},{"OBJECT_NAME":"SL-3 R/B","OBJECT_ID":"1982-013B","EPOCH":"2026-03-07T14:39:32.943744","MEAN_MOTION":15.21991703,"ECCENTRICITY":0.00225096,"INCLINATION":81.1763,"RA_OF_ASC_NODE":163.2065,"ARG_OF_PERICENTER":184.3151,"MEAN_ANOMALY":175.7891,"EPHEMERIS_TYPE":0,"CLASSIFICATION_TYPE":"U","NORAD_CAT_ID":13068,"ELEMENT_SET_NO":999,"REV_AT_EPOCH":40403,"BSTAR":0.00031774115,"MEAN_MOTION_DOT":7.328e-5,"MEAN_MOTION_DDOT":0},{"OBJECT_NAME":"SL-3 R/B","OBJECT_ID":"1982-039B","EPOCH":"2026-03-07T14:27:52.391808","MEAN_MOTION":15.10066792,"ECCENTRICITY":0.00297827,"INCLINATION":81.1585,"RA_OF_ASC_NODE":218.3678,"ARG_OF_PERICENTER":331.2896,"MEAN_ANOMALY":28.6688,"EPHEMERIS_TYPE":0,"CLASSIFICATION_TYPE":"U","NORAD_CAT_ID":13154,"ELEMENT_SET_NO":999,"REV_AT_EPOCH":38132,"BSTAR":0.00023662843,"MEAN_MOTION_DOT":3.913e-5,"MEAN_MOTION_DDOT":0},{"OBJECT_NAME":"SL-3 R/B","OBJECT_ID":"1982-079B","EPOCH":"2026-03-07T15:10:52.182624","MEAN_MOTION":15.24762249,"ECCENTRICITY":0.00250107,"INCLINATION":81.1482,"RA_OF_ASC_NODE":195.5055,"ARG_OF_PERICENTER":171.5586,"MEAN_ANOMALY":188.6074,"EPHEMERIS_TYPE":0,"CLASSIFICATION_TYPE":"U","NORAD_CAT_ID":13403,"ELEMENT_SET_NO":999,"REV_AT_EPOCH":37738,"BSTAR":0.00042299713,"MEAN_MOTION_DOT":0.00010602,"MEAN_MOTION_DDOT":0},{"OBJECT_NAME":"SL-14 R/B","OBJECT_ID":"1982-092B","EPOCH":"2026-03-07T15:13:19.606080","MEAN_MOTION":14.86664261,"ECCENTRICITY":0.00191106,"INCLINATION":82.5698,"RA_OF_ASC_NODE":143.3219,"ARG_OF_PERICENTER":310.8497,"MEAN_ANOMALY":163.2881,"EPHEMERIS_TYPE":0,"CLASSIFICATION_TYPE":"U","NORAD_CAT_ID":13553,"ELEMENT_SET_NO":999,"REV_AT_EPOCH":32862,"BSTAR":7.3460369e-5,"MEAN_MOTION_DOT":6.78e-6,"MEAN_MOTION_DDOT":0},{"OBJECT_NAME":"SL-3 R/B","OBJECT_ID":"1983-010B","EPOCH":"2026-03-07T13:27:35.534016","MEAN_MOTION":15.46261559,"ECCENTRICITY":0.0018171,"INCLINATION":81.1066,"RA_OF_ASC_NODE":4.8568,"ARG_OF_PERICENTER":58.0429,"MEAN_ANOMALY":302.2579,"EPHEMERIS_TYPE":0,"CLASSIFICATION_TYPE":"U","NORAD_CAT_ID":13819,"ELEMENT_SET_NO":999,"REV_AT_EPOCH":35761,"BSTAR":0.00048004543,"MEAN_MOTION_DOT":0.00023841,"MEAN_MOTION_DDOT":0},{"OBJECT_NAME":"SL-3 R/B","OBJECT_ID":"1983-075B","EPOCH":"2026-03-07T14:32:08.716416","MEAN_MOTION":15.38355826,"ECCENTRICITY":0.00199626,"INCLINATION":97.6143,"RA_OF_ASC_NODE":71.1036,"ARG_OF_PERICENTER":233.9045,"MEAN_ANOMALY":126.0352,"EPHEMERIS_TYPE":0,"CLASSIFICATION_TYPE":"U","NORAD_CAT_ID":14208,"ELEMENT_SET_NO":999,"REV_AT_EPOCH":32983,"BSTAR":0.0004144035,"MEAN_MOTION_DOT":0.00015701,"MEAN_MOTION_DDOT":0},{"OBJECT_NAME":"COSMOS 1536","OBJECT_ID":"1984-013A","EPOCH":"2026-03-07T13:16:11.148384","MEAN_MOTION":15.23791013,"ECCENTRICITY":0.0012618,"INCLINATION":82.5426,"RA_OF_ASC_NODE":109.9744,"ARG_OF_PERICENTER":292.0444,"MEAN_ANOMALY":67.9453,"EPHEMERIS_TYPE":0,"CLASSIFICATION_TYPE":"U","NORAD_CAT_ID":14699,"ELEMENT_SET_NO":999,"REV_AT_EPOCH":27229,"BSTAR":0.00033521989,"MEAN_MOTION_DOT":8.117e-5,"MEAN_MOTION_DDOT":0},{"OBJECT_NAME":"SL-14 R/B","OBJECT_ID":"1984-027B","EPOCH":"2026-03-07T14:32:11.237568","MEAN_MOTION":14.85974122,"ECCENTRICITY":0.00175303,"INCLINATION":82.5384,"RA_OF_ASC_NODE":246.9678,"ARG_OF_PERICENTER":345.0027,"MEAN_ANOMALY":15.0667,"EPHEMERIS_TYPE":0,"CLASSIFICATION_TYPE":"U","NORAD_CAT_ID":14820,"ELEMENT_SET_NO":999,"REV_AT_EPOCH":24732,"BSTAR":7.7220724e-5,"MEAN_MOTION_DOT":7.0e-6,"MEAN_MOTION_DDOT":0},{"OBJECT_NAME":"SL-8 R/B","OBJECT_ID":"1985-006B","EPOCH":"2026-03-07T15:21:58.559904","MEAN_MOTION":14.37780815,"ECCENTRICITY":0.00185362,"INCLINATION":74.0432,"RA_OF_ASC_NODE":264.9199,"ARG_OF_PERICENTER":183.1962,"MEAN_ANOMALY":238.4515,"EPHEMERIS_TYPE":0,"CLASSIFICATION_TYPE":"U","NORAD_CAT_ID":15483,"ELEMENT_SET_NO":999,"REV_AT_EPOCH":15373,"BSTAR":0.0001000481,"MEAN_MOTION_DOT":2.76e-6,"MEAN_MOTION_DDOT":0},{"OBJECT_NAME":"SL-12 R/B(2)","OBJECT_ID":"1985-042D","EPOCH":"2026-03-07T12:32:53.284416","MEAN_MOTION":14.21981894,"ECCENTRICITY":0.00333424,"INCLINATION":71.1062,"RA_OF_ASC_NODE":92.3071,"ARG_OF_PERICENTER":131.7156,"MEAN_ANOMALY":337.415,"EPHEMERIS_TYPE":0,"CLASSIFICATION_TYPE":"U","NORAD_CAT_ID":15772,"ELEMENT_SET_NO":999,"REV_AT_EPOCH":11408,"BSTAR":4.7679519e-5,"MEAN_MOTION_DOT":5.8e-7,"MEAN_MOTION_DDOT":0},{"OBJECT_NAME":"SL-14 R/B","OBJECT_ID":"1985-069B","EPOCH":"2026-03-07T14:11:11.093568","MEAN_MOTION":14.86430494,"ECCENTRICITY":0.00182817,"INCLINATION":82.5282,"RA_OF_ASC_NODE":26.9059,"ARG_OF_PERICENTER":194.7886,"MEAN_ANOMALY":165.2799,"EPHEMERIS_TYPE":0,"CLASSIFICATION_TYPE":"U","NORAD_CAT_ID":15945,"ELEMENT_SET_NO":999,"REV_AT_EPOCH":17252,"BSTAR":8.6699551e-5,"MEAN_MOTION_DOT":7.92e-6,"MEAN_MOTION_DDOT":0},{"OBJECT_NAME":"SL-16 R/B","OBJECT_ID":"1985-097B","EPOCH":"2026-03-07T15:59:20.790240","MEAN_MOTION":14.16599316,"ECCENTRICITY":0.0009942,"INCLINATION":71.0032,"RA_OF_ASC_NODE":144.8144,"ARG_OF_PERICENTER":262.1897,"MEAN_ANOMALY":209.0189,"EPHEMERIS_TYPE":0,"CLASSIFICATION_TYPE":"U","NORAD_CAT_ID":16182,"ELEMENT_SET_NO":999,"REV_AT_EPOCH":8694,"BSTAR":-5.845719e-5,"MEAN_MOTION_DOT":-1.65e-6,"MEAN_MOTION_DDOT":0}]
